,town,country_string,eastings,country,region,longitude,uk_region,postcode,latitude,northings
213,PEACEHAVEN,England,541100,ENG,East Sussex,0.00232,South East England,BN10,50.7953,101500
223,EASTBOURNE,England,559000,ENG,East Sussex,0.25536,South East England,BN20,50.77449,99700
224,EASTBOURNE,England,560500,ENG,East Sussex,0.27653,South East England,BN21,50.77228,99500
225,,England,561000,ENG,East Sussex,0.2844,South East England,BN22,50.78832,101300
226,EASTBOURNE,England,563000,ENG,East Sussex,0.31325,South East England,BN23,50.79764,102400
227,WESTHAM,England,564200,ENG,East Sussex,0.3312,South East England,BN24,50.81618,104500
228,SEAFORD,England,548700,ENG,East Sussex,0.10932,South East England,BN25,50.77633,99600
229,LONG MAN,England,556600,ENG,East Sussex,0.22352,South East England,BN26,50.82098,104800
230,HAILSHAM,England,559300,ENG,East Sussex,0.2643,South East England,BN27,50.87146,110500
239,LEWES,England,540700,ENG,East Sussex,0.00014,South East England,BN7,50.87719,110600
240,RINGMER,England,544200,ENG,East Sussex,0.05148,South East England,BN8,50.91318,114700
241,NEWHAVEN,England,544500,ENG,East Sussex,0.05058,South East England,BN9,50.79536,101600
242,BROMLEY,England,540600,ENG,Greater London,0.02192,London,BR1,51.41107,170000
243,BROMLEY,England,540700,ENG,Greater London,0.02237,London,BR2,51.38858,167500
246,BROMLEY,England,546400,ENG,Greater London,0.10436,London,BR5,51.38983,167800
247,BROMLEY,England,545700,ENG,Greater London,0.0932,London,BR6,51.36575,165100
248,BROMLEY,England,544100,ENG,Greater London,0.07222,London,BR7,51.41019,170000
249,SWANLEY,England,551400,ENG,Kent,0.1766,South East England,BR8,51.39751,168800
396,FULBOURN,England,549700,ENG,Cambridgeshire,0.18955,East of England,CB1,52.17611,255400
397,SAFFRON WALDEN,England,555400,ENG,Essex,0.26551,East of England,CB10,52.02989,239300
398,NEWPORT,England,552000,ENG,Essex,0.21443,East of England,CB11,51.99938,235800
399,GREAT SHELFORD,England,545900,ENG,Cambridgeshire,0.13333,East of England,CB2,52.16276,253800
400,BALSHAM,England,557100,ENG,Cambridgeshire,0.29553,East of England,CB21,52.13194,250712
401,LITTLE SHELFORD,England,545719,ENG,Cambridgeshire,0.12898,East of England,CB22,52.12718,249835
403,OVER,England,538196,ENG,Cambridgeshire,0.02762,East of England,CB24,52.31538,270565
404,LODE,England,552595,ENG,Cambridgeshire,0.23615,East of England,CB25,52.26083,264917
405,HARDWICK,England,538300,ENG,Cambridgeshire,0.02448,East of England,CB3,52.21324,259200
406,IMPINGTON,England,544400,ENG,Cambridgeshire,0.11521,East of England,CB4,52.24312,262700
407,STOW CUM QUY,England,550900,ENG,Cambridgeshire,0.21021,East of England,CB5,52.23868,262400
408,DOWNHAM,England,551300,ENG,Cambridgeshire,0.22434,East of England,CB6,52.40388,280800
409,SOHAM,England,558000,ENG,Cambridgeshire,0.32087,East of England,CB7,52.36606,276800
410,WOODDITTON,England,565700,ENG,Cambridgeshire,0.42659,East of England,CB8,52.23083,262000
411,HAVERHILL,England,567300,ENG,Suffolk,0.44187,East of England,CB9,52.08212,245500
471,SOUTHMINSTER,England,596200,ENG,Essex,0.83719,East of England,CM0,51.66221,199800
472,CHELMSFORD,England,569600,ENG,Essex,0.45694,East of England,CM1,51.74454,208000
473,,England,569300,ENG,Essex,0.44605,East of England,CM11,51.62335,194500
474,BILLERICAY,England,567200,ENG,Essex,0.41593,East of England,CM12,51.62757,194900
475,BRENTWOOD,England,561900,ENG,Essex,0.33872,East of England,CM13,51.61564,193400
476,BRENTWOOD,England,558700,ENG,Essex,0.29263,East of England,CM14,51.61835,193600
477,BRENTWOOD,England,559500,ENG,Essex,0.30545,East of England,CM15,51.64328,196400
478,EPPING,England,546600,ENG,Essex,0.12161,East of England,CM16,51.69981,202300
479,HARLOW,England,548000,ENG,Essex,0.14522,East of England,CM17,51.77043,210200
480,HARLOW,England,545400,ENG,Essex,0.10685,East of England,CM18,51.75584,208500
481,HARLOW,England,543200,ENG,Essex,0.07515,East of England,CM19,51.76,208900
482,GREAT BADDOW,England,571800,ENG,Essex,0.48754,East of England,CM2,51.72141,205500
483,HARLOW,England,545200,ENG,Essex,0.10483,East of England,CM20,51.77476,210600
484,SAWBRIDGEWORTH,England,548000,ENG,Hertfordshire,0.14718,East of England,CM21,51.81177,214800
485,GREAT HALLINGBURY,England,553000,ENG,Essex,0.22218,East of England,CM22,51.86164,220500
486,BISHOPS STORTFORD,England,548700,ENG,Hertfordshire,0.16021,East of England,CM23,51.87178,221500
487,STANSTED MOUNTFITCHET,England,551800,ENG,Essex,0.20657,East of England,CM24,51.8988,224600
488,DANBURY,England,578500,ENG,Essex,0.58445,East of England,CM3,51.71932,205500
489,INGATESTONE,England,565400,ENG,Essex,0.39235,East of England,CM4,51.67392,200000
490,ONGAR,England,555300,ENG,Essex,0.24857,East of England,CM5,51.72083,204900
491,GREAT DUNMOW,England,562900,ENG,Essex,0.36678,East of England,CM6,51.8768,222500
492,BRAINTREE,England,574600,ENG,Essex,0.53797,East of England,CM7,51.89752,225200
493,BRAINTREE,England,574000,ENG,Essex,0.52554,East of England,CM77,51.86224,221200
494,WITHAM,England,581900,ENG,Essex,0.6387,East of England,CM8,51.80536,215200
495,HEYBRIDGE,England,586500,ENG,Essex,0.70159,East of England,CM9,51.74097,208200
496,COLCHESTER,England,600200,ENG,Essex,0.9096,East of England,CO1,51.88891,225200
497,SUDBURY,England,586700,ENG,Suffolk,0.72355,East of England,CO10,52.05706,243400
498,MISTLEY,England,611600,ENG,Essex,1.0789,East of England,CO11,51.94126,231500
499,HARWICH,England,623700,ENG,Essex,1.25427,East of England,CO12,51.93115,230900
500,FRINTON AND WALTON,England,623100,ENG,Essex,1.23884,East of England,CO13,51.83802,220500
501,FRINTON AND WALTON,England,625100,ENG,Essex,1.26873,East of England,CO14,51.84979,221900
502,CLACTON-ON-SEA,England,617600,ENG,Essex,1.15605,East of England,CO15,51.7962,215600
503,LITTLE CLACTON,England,615400,ENG,Essex,1.1258,East of England,CO16,51.82039,218200
504,COLCHESTER,England,599300,ENG,Essex,0.89527,East of England,CO2,51.86947,223000
505,COLCHESTER,England,597000,ENG,Essex,0.86281,East of England,CO3,51.88466,224600
506,COLCHESTER,England,601100,ENG,Essex,0.92383,East of England,CO4,51.90654,227200
507,LAYER BRETON,England,594500,ENG,Essex,0.82209,East of England,CO5,51.81459,216700
508,FORDHAM,England,591800,ENG,Essex,0.78968,East of England,CO6,51.92419,228800
509,ELMSTEAD,England,606800,ENG,Essex,1.0052,East of England,CO7,51.8838,224900
510,BURES HAMLET,England,590100,ENG,Essex,0.76797,East of England,CO8,51.97328,234200
511,SIBLE HEDINGHAM,England,579300,ENG,Essex,0.61043,East of England,CO9,51.96878,233300
521,CANTERBURY,England,615300,ENG,Kent,1.08733,South East England,CT1,51.27719,157700
522,BROADSTAIRS,England,638800,ENG,Kent,1.43073,South East England,CT10,51.36208,168200
523,MARGATE,England,637800,ENG,Kent,1.41438,South East England,CT11,51.33557,165200
524,MANSTON,England,634900,ENG,Kent,1.37322,South East England,CT12,51.34216,165800
525,SANDWICH,England,632300,ENG,Kent,1.33042,South East England,CT13,51.26692,157300
526,DOVER,England,636500,ENG,Kent,1.38689,South East England,CT14,51.21582,151800
527,WHITFIELD,England,629500,ENG,Kent,1.28343,South East England,CT15,51.17109,146500
528,DOVER,England,631000,ENG,Kent,1.30267,South East England,CT16,51.13996,143100
529,DOVER,England,630600,ENG,Kent,1.29613,South East England,CT17,51.12845,141800
530,HAWKINGE,England,620500,ENG,Kent,1.15078,South East England,CT18,51.11447,139800
531,FOLKESTONE,England,622000,ENG,Kent,1.1704,South East England,CT19,51.08785,136900
532,CANTERBURY,England,614900,ENG,Kent,1.08262,South East England,CT2,51.29261,159400
533,FOLKESTONE,England,621700,ENG,Kent,1.16551,South East England,CT20,51.07899,135900
534,HYTHE,England,615600,ENG,Kent,1.07795,South East England,CT21,51.07233,134900
535,WINGHAM,England,624000,ENG,Kent,1.21213,South East England,CT3,51.27743,158100
536,LOWER HARDRES,England,614200,ENG,Kent,1.06805,South East England,CT4,51.22462,151800
537,CANTERBURY,England,611400,ENG,Kent,1.03641,South East England,CT5,51.35318,166000
538,CANTERBURY,England,617900,ENG,Kent,1.13054,South East England,CT6,51.3642,167500
539,BIRCHINGTON,England,629700,ENG,Kent,1.30062,South East England,CT7,51.37122,168800
540,MARGATE,England,632500,ENG,Kent,1.3415,South East England,CT8,51.37996,169900
541,MARGATE,England,635900,ENG,Kent,1.3906,South East England,CT9,51.38304,170400
578,DARTFORD,England,553500,ENG,Kent,0.20915,South East England,DA1,51.44637,174300
579,SWANSCOMBE,England,560400,ENG,Kent,0.30837,South East England,DA10,51.44445,174300
580,GRAVESEND,England,563600,ENG,Kent,0.35392,South East England,DA11,51.43455,173300
581,GRAVESEND,England,566000,ENG,Kent,0.38809,South East England,DA12,51.42757,172600
582,MEOPHAM STATION,England,563900,ENG,Kent,0.35555,South East England,DA13,51.38235,167500
583,BEXLEY,England,546900,ENG,Greater London,0.11316,London,DA14,51.42475,171700
584,BEXLEY,England,545900,ENG,Greater London,0.09948,London,DA15,51.44029,173400
585,BEXLEY,England,546500,ENG,Greater London,0.10923,London,DA16,51.4644,176100
586,CRAYFORD,England,549200,ENG,Greater London,0.14917,London,DA17,51.48706,178700
587,CRAYFORD,England,548800,ENG,Greater London,0.14363,London,DA18,51.49165,179200
588,DARENTH,England,555300,ENG,Kent,0.23433,South East England,DA2,51.4315,172700
589,HARTLEY,England,560700,ENG,Kent,0.30965,South East England,DA3,51.38417,167600
590,HORTON KIRBY,England,555300,ENG,Kent,0.23236,South East England,DA4,51.39106,168200
591,BEXLEY,England,549200,ENG,Greater London,0.14698,London,DA5,51.44033,173500
592,BEXLEY,England,548700,ENG,Greater London,0.14046,London,DA6,51.45484,175100
593,CRAYFORD,England,549100,ENG,Greater London,0.14672,London,DA7,51.46552,176300
594,CRAYFORD,England,551200,ENG,Greater London,0.17745,London,DA8,51.47574,177500
595,STONE,England,558400,ENG,Kent,0.27975,South East England,DA9,51.44771,174600
730,WALTHAMSTOW,England,539600,ENG,Greater London,0.01443,London,E11,51.56769,187400
731,STRATFORD,England,542400,ENG,Greater London,0.05404,London,E12,51.54992,185500
732,EAST HAM,England,540600,ENG,Greater London,0.02705,London,E13,51.527,182900
734,STRATFORD,England,538900,ENG,Greater London,0.00307,London,E15,51.53911,184200
735,EAST HAM,England,540600,ENG,Greater London,0.02633,London,E16,51.51083,181100
737,ILFORD,England,540400,ENG,Greater London,0.02705,London,E18,51.59176,190100
740,QUEEN ELIZABETH OLYMPIC PARK,England,538350,ENG,Greater London,0.09248,London,E20,51.54593,184500
744,EAST HAM,England,542600,ENG,Greater London,0.05583,London,E6,51.5256,182800
745,STRATFORD,England,540600,ENG,Greater London,0.02793,London,E7,51.54678,185100
841,WALTHAM ABBEY,England,539200,ENG,Essex,0.01427,East of England,EN9,51.69451,201500
1104,WITHERNSEA,England,534300,ENG,East Riding of Yorkshire,0.03566,Yorkshire and the Humber,HU19,53.72277,427100
1121,ILFORD,England,543800,ENG,Greater London,0.07463,London,IG1,51.55855,186500
1122,LOUGHTON,England,542900,ENG,Essex,0.06569,East of England,IG10,51.64775,196400
1123,BARKING,England,545200,ENG,Greater London,0.09378,London,IG11,51.53573,184000
1124,ILFORD,England,544200,ENG,Greater London,0.08109,London,IG2,51.57373,188200
1125,ILFORD,England,545600,ENG,Greater London,0.10074,London,IG3,51.56168,186900
1126,ILFORD,England,542400,ENG,Greater London,0.05525,London,IG4,51.57688,188500
1127,ILFORD,England,543100,ENG,Greater London,0.06584,London,IG5,51.58749,189700
1128,ILFORD,England,544700,ENG,Greater London,0.08917,London,IG6,51.59247,190300
1129,LOUGHTON,England,544600,ENG,Essex,0.08867,East of England,IG7,51.61316,192600
1130,ILFORD,England,540800,ENG,Greater London,0.0335,London,IG8,51.60694,191800
1131,LOUGHTON,England,541200,ENG,Essex,0.04004,East of England,IG9,51.62391,193700
1141,IPSWICH,England,615300,ENG,Suffolk,1.14151,East of England,IP1,52.06644,245600
1142,LEVINGTON,England,624300,ENG,Suffolk,1.26939,East of England,IP10,52.01888,240700
1143,FELIXSTOWE,England,629000,ENG,Suffolk,1.3343,East of England,IP11,51.97028,235500
1144,BROMESWELL,England,631000,ENG,Suffolk,1.37262,East of England,IP12,52.09243,249200
1145,KETTLEBURGH,England,627000,ENG,Suffolk,1.32107,East of England,IP13,52.18475,259300
1146,STOWUPLAND,England,607300,ENG,Suffolk,1.03423,East of England,IP14,52.20597,260800
1147,ALDEBURGH,England,646000,ENG,Suffolk,1.59688,East of England,IP15,52.15686,257100
1148,LEISTON,England,645000,ENG,Suffolk,1.58604,East of England,IP16,52.20397,262300
1149,KELSALE,England,639200,ENG,Suffolk,1.50316,East of England,IP17,52.22985,264900
1150,SOUTHWOLD,England,650200,ENG,Suffolk,1.67259,East of England,IP18,52.32995,276600
1151,HALESWORTH,England,638100,ENG,Suffolk,1.4957,East of England,IP19,52.33982,277100
1152,IPSWICH,England,615000,ENG,Suffolk,1.13563,East of England,IP2,52.04501,243200
1153,HARLESTON,England,625900,ENG,Norfolk,1.3215,East of England,IP20,52.40601,283900
1154,SYLEHAM,England,620300,ENG,Suffolk,1.23608,East of England,IP21,52.36431,279000
1155,WORTHAM,England,607800,ENG,Suffolk,1.05319,East of England,IP22,52.37548,279700
1156,EYE,England,613000,ENG,Suffolk,1.12472,East of England,IP23,52.30615,272200
1157,THETFORD,England,587600,ENG,Norfolk,0.75903,East of England,IP24,52.41869,283700
1158,OVINGTON,England,592300,ENG,Norfolk,0.83892,East of England,IP25,52.58588,302500
1159,METHWOLD,England,574900,ENG,Norfolk,0.57739,East of England,IP26,52.50733,293100
1160,BRANDON,England,575800,ENG,Suffolk,0.5861,East of England,IP27,52.4298,284500
1161,TUDDENHAM,England,573700,ENG,Suffolk,0.54924,East of England,IP28,52.32627,272900
1162,WHEPSTEAD,England,582000,ENG,Suffolk,0.66303,East of England,IP29,52.19245,258300
1163,IPSWICH,England,618600,ENG,Suffolk,1.18792,East of England,IP3,52.0418,243000
1164,HESSETT,England,593800,ENG,Suffolk,0.83679,East of England,IP30,52.20909,260600
1165,PAKENHAM,England,592900,ENG,Suffolk,0.82877,East of England,IP31,52.29023,269600
1166,BURY ST EDMUNDS,England,585500,ENG,Suffolk,0.71797,East of England,IP32,52.25326,265200
1167,BURY ST EDMUNDS,England,584900,ENG,Suffolk,0.70848,East of England,IP33,52.24178,263900
1168,IPSWICH,England,618000,ENG,Suffolk,1.18046,East of England,IP4,52.06,245000
1169,KESGRAVE,England,622200,ENG,Suffolk,1.24182,East of England,IP5,52.06102,245300
1170,HEMINGSTONE,England,613200,ENG,Suffolk,1.11536,East of England,IP6,52.131,252700
1171,ALDHAM,England,602100,ENG,Suffolk,0.94901,East of England,IP7,52.06872,245300
1172,SPROUGHTON,England,611300,ENG,Suffolk,1.0828,East of England,IP8,52.06169,244900
1173,HOLBROOK,England,616200,ENG,Suffolk,1.14931,East of England,IP9,51.99067,237200
1476,LOUTH,England,534700,ENG,Lincolnshire,0.02496,Yorkshire and the Humber,LN11,53.3732,388200
1477,MABLETHORPE,England,550900,ENG,Lincolnshire,0.2662,Yorkshire and the Humber,LN12,53.3293,383800
1478,ALFORD,England,545700,ENG,Lincolnshire,0.18482,Yorkshire and the Humber,LN13,53.26518,376500
1566,ROCHESTER,England,574000,ENG,Medway,0.50017,South East England,ME1,51.37216,166700
1567,SITTINGBOURNE,England,590600,ENG,Kent,0.73697,South East England,ME10,51.34258,164000
1568,QUEENBOROUGH,England,591100,ENG,Kent,0.74833,South East England,ME11,51.41247,171800
1569,SITTINGBOURNE,England,595000,ENG,Kent,0.80507,South East England,ME12,51.42282,173100
1570,FAVERSHAM,England,601900,ENG,Kent,0.89675,South East England,ME13,51.30275,160000
1571,MAIDSTONE,England,577200,ENG,Kent,0.54108,South East England,ME14,51.28043,156600
1572,MAIDSTONE,England,576800,ENG,Kent,0.53392,South East England,ME15,51.2545,153700
1573,MAIDSTONE,England,574300,ENG,Kent,0.49915,South East England,ME16,51.27414,155800
1574,LEEDS,England,582200,ENG,Kent,0.61021,South East England,ME17,51.23484,151700
1575,WEST FARLEIGH,England,569100,ENG,Kent,0.42301,South East England,ME18,51.24426,152300
1576,WEST MALLING,England,568100,ENG,Kent,0.41123,South East England,ME19,51.29307,157700
1577,STROOD,England,572900,ENG,Medway,0.4854,South East England,ME2,51.39136,168800
1578,DITTON,England,571400,ENG,Kent,0.45919,South East England,ME20,51.30467,159100
1579,HOO ST WERBURGH,England,577000,ENG,Medway,0.54668,South East England,ME3,51.43322,173600
1580,ROCHESTER,England,576100,ENG,Medway,0.53081,South East England,ME4,51.3805,167700
1581,ROCHESTER,England,576400,ENG,Medway,0.53338,South East England,ME5,51.34896,164200
1582,SNODLAND,England,570100,ENG,Kent,0.4417,South East England,ME6,51.32662,161500
1583,GILLINGHAM,England,577900,ENG,Medway,0.5566,South East England,ME7,51.37904,167600
1584,GILLINGHAM,England,580900,ENG,Medway,0.5987,South East England,ME8,51.36102,165700
1585,SITTINGBOURNE,England,589800,ENG,Kent,0.72491,South East England,ME9,51.33297,162900
1773,NORWICH,England,624000,ENG,Norfolk,1.31012,East of England,NR1,52.62671,308400
1774,HEVINGHAM,England,619100,ENG,Norfolk,1.24582,East of England,NR10,52.73642,320400
1775,ERPINGHAM,England,620600,ENG,Norfolk,1.27596,East of England,NR11,52.84173,332200
1776,SMALLBURGH,England,634200,ENG,Norfolk,1.47144,East of England,NR12,52.75971,323700
1777,BLOFIELD,England,635000,ENG,Norfolk,1.47327,East of England,NR13,52.63372,309700
1778,ALPINGTON,England,629100,ENG,Norfolk,1.3807,East of England,NR14,52.56445,301700
1779,HEMPNALL,England,621900,ENG,Norfolk,1.2701,East of England,NR15,52.50639,294900
1780,OLD BUCKENHAM,England,607900,ENG,Norfolk,1.06162,East of England,NR16,52.476,290900
1781,ATTLEBOROUGH,England,603300,ENG,Norfolk,0.99655,East of England,NR17,52.51544,295100
1782,WYMONDHAM,England,610800,ENG,Norfolk,1.11105,East of England,NR18,52.57095,301600
1783,SCARNING,England,598000,ENG,Norfolk,0.92907,East of England,NR19,52.67542,312700
1784,NORWICH,England,622300,ENG,Norfolk,1.28524,East of England,NR2,52.6301,308700
1785,SWANTON MORLEY,England,601300,ENG,Norfolk,0.98124,East of England,NR20,52.72449,318300
1786,FAKENHAM,England,592100,ENG,Norfolk,0.85257,East of England,NR21,52.84097,330900
1787,WALSINGHAM,England,592900,ENG,Norfolk,0.86793,East of England,NR22,52.89366,336800
1788,WELLS-NEXT-THE-SEA,England,592100,ENG,Norfolk,0.85966,East of England,NR23,52.94872,342900
1789,BRISTON,England,605400,ENG,Norfolk,1.05135,East of England,NR24,52.85851,333400
1790,HOLT,England,607400,ENG,Norfolk,1.08541,East of England,NR25,52.91969,340300
1791,SHERINGHAM,England,616100,ENG,Norfolk,1.21602,East of England,NR26,52.93511,342400
1792,CROMER,England,621900,ENG,Norfolk,1.30157,East of England,NR27,52.92467,341500
1793,NORTH WALSHAM,England,629100,ENG,Norfolk,1.40068,East of England,NR28,52.82203,330400
1794,GREAT YARMOUTH,England,645900,ENG,Norfolk,1.63932,East of England,NR29,52.6926,316800
1795,NORWICH,England,622900,ENG,Norfolk,1.29511,East of England,NR3,52.64332,310200
1796,GREAT YARMOUTH,England,652400,ENG,Norfolk,1.72926,East of England,NR30,52.61874,308900
1797,GREAT YARMOUTH,England,651400,ENG,Norfolk,1.71087,East of England,NR31,52.57614,304100
1798,OULTON BROAD,England,653500,ENG,Suffolk,1.73448,East of England,NR32,52.48903,294500
1799,OULTON BROAD,England,652700,ENG,Suffolk,1.71976,East of England,NR33,52.45441,290600
1800,WESTON,England,643600,ENG,Suffolk,1.58442,East of England,NR34,52.43791,288300
1801,BUNGAY,England,633300,ENG,Suffolk,1.43463,East of England,NR35,52.46125,290400
1802,NORWICH,England,621000,ENG,Norfolk,1.26479,East of England,NR4,52.61357,306800
1803,NORWICH,England,618800,ENG,Norfolk,1.23427,East of England,NR5,52.6405,309700
1804,NORWICH,England,622000,ENG,Norfolk,1.2831,East of England,NR6,52.66074,312100
1805,NORWICH,England,625700,ENG,Norfolk,1.33521,East of England,NR7,52.65063,311100
1806,TAVERHAM,England,617100,ENG,Norfolk,1.21188,East of England,NR8,52.67798,313800
1807,MARLINGFORD,England,610400,ENG,Norfolk,1.10973,East of England,NR9,52.63574,308800
1932,FLEET,England,536800,ENG,Lincolnshire,0.0286,Yorkshire and the Humber,PE12,52.78328,322600
1933,WISBECH,England,544600,ENG,Cambridgeshire,0.13868,East of England,PE13,52.66895,310100
1934,EMNETH,England,549600,ENG,Norfolk,0.21112,East of England,PE14,52.63884,306900
1935,MARCH,England,541500,ENG,Cambridgeshire,0.08649,East of England,PE15,52.53589,295200
1936,CHATTERIS,England,539300,ENG,Cambridgeshire,0.05022,East of England,PE16,52.45379,286000
1941,OLD LEAKE,England,537100,ENG,Lincolnshire,0.0455,Yorkshire and the Humber,PE22,53.04826,352100
1942,SPILSBY,England,539800,ENG,Lincolnshire,0.09181,Yorkshire and the Humber,PE23,53.17244,366000
1943,BURGH LE MARSH,England,551600,ENG,Lincolnshire,0.26804,Yorkshire and the Humber,PE24,53.16561,365600
1944,SKEGNESS,England,556200,ENG,Lincolnshire,0.33616,Yorkshire and the Humber,PE25,53.15261,364300
1950,KING'S LYNN,England,563200,ENG,Norfolk,0.41884,East of England,PE30,52.75978,320800
1951,SNETTISHAM,England,572700,ENG,Norfolk,0.56647,East of England,PE31,52.87538,334000
1952,WEST ACRE,England,577400,ENG,Norfolk,0.62756,East of England,PE32,52.73016,318000
1953,SHOULDHAM,England,567000,ENG,Norfolk,0.46886,East of England,PE33,52.64814,308500
1954,WIGGENHALL ST GERMANS,England,558000,ENG,Norfolk,0.33986,East of England,PE34,52.7245,316700
1955,SANDRINGHAM,England,569200,ENG,Norfolk,0.51155,East of England,PE35,52.8253,328300
1956,OLD HUNSTANTON,England,568500,ENG,Norfolk,0.50754,East of England,PE36,52.936,340600
1957,SWAFFHAM,England,582200,ENG,Norfolk,0.69336,East of England,PE37,52.64414,308600
1958,DENVER,England,561000,ENG,Norfolk,0.37698,East of England,PE38,52.58977,301800
2126,FOREST ROW,England,542200,ENG,East Sussex,0.03104,South East England,RH18,51.09702,135100
2135,LIMPSFIELD,England,539800,ENG,Surrey,0.00344,South East England,RH8,51.2513,152200
2137,ROMFORD,England,551300,ENG,Greater London,0.18395,London,RM1,51.58175,189300
2138,BARKING,England,549700,ENG,Greater London,0.15909,London,RM10,51.54443,185100
2139,ROMFORD,England,553800,ENG,Greater London,0.21944,London,RM11,51.56939,188000
2140,ROMFORD,England,553100,ENG,Greater London,0.20852,London,RM12,51.55251,186100
2141,ROMFORD,England,552300,ENG,Greater London,0.19561,London,RM13,51.52397,182900
2142,ROMFORD,England,557000,ENG,Greater London,0.26496,London,RM14,51.55593,186600
2143,,England,558100,ENG,Thurrock,0.27843,East of England,RM15,51.508,181300
2144,,England,562500,ENG,Thurrock,0.341,East of England,RM16,51.49148,179600
2145,,England,561800,ENG,Thurrock,0.33029,East of England,RM17,51.4791,178200
2146,,England,565100,ENG,Thurrock,0.37716,East of England,RM18,51.46646,176900
2147,,England,556100,ENG,Thurrock,0.24835,East of England,RM19,51.4825,178400
2148,ROMFORD,England,552600,ENG,Greater London,0.20279,London,RM2,51.5832,189500
2149,,England,558900,ENG,Thurrock,0.28847,East of England,RM20,51.47812,178000
2150,ROMFORD,England,554200,ENG,Greater London,0.22679,London,RM3,51.60163,191600
2151,STAPLEFORD ABBOTTS,England,549500,ENG,Essex,0.16038,East of England,RM4,51.63255,194900
2152,ROMFORD,England,550000,ENG,Greater London,0.16602,London,RM5,51.59917,191200
2153,BARKING,England,547800,ENG,Greater London,0.13313,London,RM6,51.57549,188500
2154,ROMFORD,England,550400,ENG,Greater London,0.17063,London,RM7,51.5748,188500
2155,BARKING,England,547800,ENG,Greater London,0.13225,London,RM8,51.55662,186400
2156,BARKING,England,548100,ENG,Greater London,0.13582,London,RM9,51.54036,184600
2256,GREENWICH,England,540700,ENG,Greater London,0.02483,London,SE12,51.4443,173700
2262,ELTHAM,England,544000,ENG,Greater London,0.07412,London,SE18,51.48391,178200
2264,ELTHAM,England,547000,ENG,Greater London,0.11759,London,SE2,51.48943,178900
2273,ELTHAM,England,546300,ENG,Greater London,0.10809,London,SE28,51.50219,180300
2274,GREENWICH,England,540300,ENG,Greater London,0.02015,London,SE3,51.46866,176400
2278,GREENWICH,England,541300,ENG,Greater London,0.03521,London,SE7,51.48369,178100
2280,ELTHAM,England,542900,ENG,Greater London,0.05651,London,SE9,51.44465,173800
2282,MUCH HADHAM,England,542700,ENG,Hertfordshire,0.07178,East of England,SG10,51.8446,218300
2283,STANDON,England,539900,ENG,Hertfordshire,0.03278,East of England,SG11,51.88125,222300
2397,,England,586600,ENG,Southend-on-Sea,0.69146,East of England,SS0,51.54602,186500
2398,,England,589500,ENG,Southend-on-Sea,0.73275,East of England,SS1,51.53697,185600
2399,WICKFORD,England,575700,ENG,Essex,0.53807,East of England,SS11,51.6151,193800
2400,WICKFORD,England,574600,ENG,Essex,0.52164,East of England,SS12,51.60556,192700
2401,BASILDON,England,573900,ENG,Essex,0.50981,East of England,SS13,51.57433,189200
2402,BASILDON,England,571500,ENG,Essex,0.47521,East of England,SS14,51.57507,189200
2403,BASILDON,England,568500,ENG,Essex,0.432,East of England,SS15,51.57687,189300
2404,BASILDON,England,570100,ENG,Essex,0.4543,East of England,SS16,51.56201,187700
2405,CORRINGHAM,England,569300,ENG,Thurrock,0.44055,East of England,SS17,51.52093,183100
2406,,England,588400,ENG,Southend-on-Sea,0.71766,East of England,SS2,51.54991,187000
2407,,England,593600,ENG,Southend-on-Sea,0.79224,East of England,SS3,51.54276,186400
2408,ROCHFORD,England,588000,ENG,Essex,0.71452,East of England,SS4,51.59406,191900
2409,HOCKLEY,England,583500,ENG,Essex,0.6503,East of England,SS5,51.60722,193200
2410,RAYLEIGH,England,580700,ENG,Essex,0.60872,East of England,SS6,51.58746,190900
2411,CANVEY ISLAND,England,578800,ENG,Essex,0.57984,East of England,SS7,51.56202,188000
2412,CANVEY ISLAND,England,579700,ENG,Essex,0.59057,East of England,SS8,51.5222,183600
2413,,England,583900,ENG,Southend-on-Sea,0.65298,East of England,SS9,51.55409,187300
2540,ROYAL TUNBRIDGE WELLS,England,558800,ENG,Kent,0.27002,South East England,TN1,51.1349,139800
2541,TONBRIDGE,England,559700,ENG,Kent,0.28661,South East England,TN10,51.21013,148200
2542,TONBRIDGE,England,558500,ENG,Kent,0.26922,South East England,TN11,51.20597,147700
2543,YALDING,England,570600,ENG,Kent,0.44067,South East England,TN12,51.17194,144300
2544,SEVENOAKS,England,552400,ENG,Kent,0.18519,South East England,TN13,51.27593,155300
2545,DUNTON GREEN,England,550700,ENG,Kent,0.16172,South East England,TN14,51.29525,157400
2546,WROTHAM,England,558200,ENG,Kent,0.26953,South East England,TN15,51.29951,158100
2547,,England,543100,ENG,Greater London,0.05262,London,TN16,51.29362,157000
2548,CRANBROOK,England,577700,ENG,Kent,0.5381,South East England,TN17,51.0961,136100
2549,FOUR THROWS,England,577100,ENG,Kent,0.52665,South East England,TN18,51.04328,130200
2550,BURWASH,England,568900,ENG,East Sussex,0.40754,South East England,TN19,51.00262,125400
2551,ROYAL TUNBRIDGE WELLS,England,560000,ENG,Kent,0.28729,South East England,TN2,51.13726,140100
2552,MAYFIELD,England,558200,ENG,East Sussex,0.25615,South East England,TN20,51.02633,127700
2553,HEATHFIELD,England,559000,ENG,East Sussex,0.26427,South East England,TN21,50.95871,120200
2554,UCKFIELD,England,547400,ENG,East Sussex,0.10005,South East England,TN22,50.98067,122300
2555,ASHFORD,England,600100,ENG,Kent,0.86075,South East England,TN23,51.13902,141700
2556,ASHFORD,England,601900,ENG,Kent,0.88712,South East England,TN24,51.14917,142900
2557,WYE,England,605600,ENG,Kent,0.93972,South East England,TN25,51.14426,142500
2558,SHADOXHURST,England,596400,ENG,Kent,0.80547,South East England,TN26,51.09988,137200
2559,SMARDEN,England,589200,ENG,Kent,0.70642,South East England,TN27,51.16519,144200
2560,NEW ROMNEY,England,607200,ENG,Kent,0.95226,South East England,TN28,50.98202,124500
2561,ST MARY IN THE MARSH,England,605900,ENG,Kent,0.93444,South East England,TN29,50.99327,125700
2562,ROYAL TUNBRIDGE WELLS,England,557600,ENG,Kent,0.25227,South East England,TN3,51.12265,138400
2563,TENTERDEN,England,589000,ENG,Kent,0.69753,South East England,TN30,51.06195,132700
2564,PEASMARSH,England,588700,ENG,East Sussex,0.68748,South East England,TN31,50.96233,121600
2565,SALEHURST,England,574800,ENG,East Sussex,0.4904,South East England,TN32,50.9793,123000
2566,BATTLE,England,574100,ENG,East Sussex,0.47676,South East England,TN33,50.91032,115300
2567,HASTINGS,England,581800,ENG,East Sussex,0.58374,South East England,TN34,50.86393,110400
2568,HASTINGS,England,583800,ENG,East Sussex,0.61309,South East England,TN35,50.88036,112300
2569,ICKLESHAM,England,589900,ENG,East Sussex,0.70216,South East England,TN36,50.92061,117000
2570,HASTINGS,England,580000,ENG,East Sussex,0.55858,South East England,TN37,50.87168,111200
2571,HASTINGS,England,579100,ENG,East Sussex,0.54531,South East England,TN38,50.86297,110200
2572,BEXHILL,England,572800,ENG,East Sussex,0.45488,South East England,TN39,50.84602,108100
2573,ROYAL TUNBRIDGE WELLS,England,558000,ENG,Kent,0.25912,South East England,TN4,51.1459,141000
2574,BEXHILL,England,574900,ENG,East Sussex,0.48463,South East England,TN40,50.84449,108000
2575,WADHURST,England,565500,ENG,East Sussex,0.36223,South East England,TN5,51.06471,132200
2576,CROWBOROUGH,England,552400,ENG,East Sussex,0.17464,South East England,TN6,51.05216,130400
2577,HARTFIELD,England,547700,ENG,East Sussex,0.10938,South East England,TN7,51.09204,134700
2578,EDENBRIDGE,England,545300,ENG,Kent,0.07969,South East England,TN8,51.1942,146000
2579,TONBRIDGE,England,559100,ENG,Kent,0.27705,South East England,TN9,51.19053,146000
